COMMENT,ORIGINATOR,NORAD_CAT_ID,OBJECT_NAME,OBJECT_TYPE,CLASSIFICATION_TYPE,INTLDES,EPOCH,EPOCH_MICROSECONDS,MEAN_MOTION,ECCENTRICITY,INCLINATION,RA_OF_ASC_NODE,ARG_OF_PERICENTER,MEAN_ANOMALY,EPHEMERIS_TYPE,ELEMENT_SET_NO,REV_AT_EPOCH,BSTAR,MEAN_MOTION_DOT,MEAN_MOTION_DDOT,FILE,TLE_LINE0,TLE_LINE1,TLE_LINE2,OBJECT_ID,OBJECT_NUMBER,SEMIMAJOR_AXIS,PERIOD,APOGEE,PERIGEE,DECAYED
"GENERATED VIA SPACETRACK.ORG API","18 SPCS","55094","SPACEBEE-165","PAYLOAD","U","23001CP","2023-04-02 08:31:07","597920","15.17198429","0.0013528","97.4861","153.2437","262.6718","97.2977","0","999","1359","0.0012208","0.00024308","0","3878126","0 SPACEBEE-165","1 55094U 23001CP  23092.35494905  .00024308  00000-0  12208-2 0  9996","2 55094  97.4861 153.2437 0013528 262.6718  97.2977 15.17198429 13592","2023-001CP","55094","6892.449","94.912","523.638","504.990","0"
"GENERATED VIA SPACETRACK.ORG API","18 SPCS","55094","SPACEBEE-165","PAYLOAD","U","23001CP","2023-04-02 18:00:57","439584","15.17214214","0.0013509","97.4859","153.6347","261.0822","98.8882","0","999","1365","0.0010745","0.00021388","0","3878419","0 SPACEBEE-165","1 55094U 23001CP  23092.75066481  .00021388  00000-0  10745-2 0  9993","2 55094  97.4859 153.6347 0013509 261.0822  98.8882 15.17214214 13651","2023-001CP","55094","6892.402","94.911","523.578","504.956","0"
"GENERATED VIA SPACETRACK.ORG API","18 SPCS","55094","SPACEBEE-165","PAYLOAD","U","23001CP","2023-04-03 09:50:39","660864","15.17241551","0.0013609","97.4856","154.2862","258.6058","101.3646","0","999","1375","0.0010811","0.00021538","0","3878962","0 SPACEBEE-165","1 55094U 23001CP  23093.41018126  .00021538  00000-0  10811-2 0  9991","2 55094  97.4856 154.2862 0013609 258.6058 101.3646 15.17241551 13754","2023-001CP","55094","6892.319","94.909","523.564","504.804","0"
"GENERATED VIA SPACETRACK.ORG API","18 SPCS","55094","SPACEBEE-165","PAYLOAD","U","23001CP","2023-04-03 09:50:39","660864","15.17241551","0.0013609","97.4856","154.2862","258.6058","101.3646","0","999","1375","0.0010811","0.00021538","0","3879059","0 SPACEBEE-165","1 55094U 23001CP  23093.41018126  .00021538  00000-0  10811-2 0  9991","2 55094  97.4856 154.2862 0013609 258.6058 101.3646 15.17241551 13754","2023-001CP","55094","6892.319","94.909","523.564","504.804","0"
"GENERATED VIA SPACETRACK.ORG API","18 SPCS","55094","SPACEBEE-165","PAYLOAD","U","23001CP","2023-04-04 03:15:18","975456","15.17270628","0.0013677","97.4852","155.0032","256.0754","103.8959","0","999","1386","0.0010335","0.00020602","0","3879974","0 SPACEBEE-165","1 55094U 23001CP  23094.13563629  .00020602  00000-0  10335-2 0  9996","2 55094  97.4852 155.0032 0013677 256.0754 103.8959 15.17270628 13861","2023-001CP","55094","6892.231","94.907","523.522","504.669","0"
"GENERATED VIA SPACETRACK.ORG API","18 SPCS","55094","SPACEBEE-165","PAYLOAD","U","23001CP","2023-04-05 02:59:48","754176","15.17310606","0.0013791","97.4851","155.9806","252.5189","107.4537","0","999","1401","0.001004","0.00020034","0","3880569","0 SPACEBEE-165","1 55094U 23001CP  23095.12486984  .00020034  00000-0  10040-2 0  9996","2 55094  97.4851 155.9806 0013791 252.5189 107.4537 15.17310606 14019","2023-001CP","55094","6892.110","94.905","523.480","504.470","0"
"GENERATED VIA SPACETRACK.ORG API","18 SPCS","55094","SPACEBEE-165","PAYLOAD","U","23001CP","2023-04-05 02:59:48","754176","15.17310606","0.0013791","97.4851","155.9806","252.5189","107.4537","0","999","1401","0.001004","0.00020034","0","3880853","0 SPACEBEE-165","1 55094U 23001CP  23095.12486984  .00020034  00000-0  10040-2 0  9996","2 55094  97.4851 155.9806 0013791 252.5189 107.4537 15.17310606 14019","2023-001CP","55094","6892.110","94.905","523.480","504.470","0"
"GENERATED VIA SPACETRACK.ORG API","18 SPCS","55094","SPACEBEE-165","PAYLOAD","U","23001CP","2023-04-05 17:14:29","529312","15.17334771","0.0013826","97.4849","156.5668","250.0425","109.9319","0","999","1410","0.00097505","0.00019466","0","3881153","0 SPACEBEE-165","1 55094U 23001CP  23095.71839733  .00019466  00000-0  97505-3 0  9994","2 55094  97.4849 156.5668 0013826 250.0425 109.9319 15.17334771 14108","2023-001CP","55094","6892.036","94.903","523.430","504.373","0"
"GENERATED VIA SPACETRACK.ORG API","18 SPCS","55094","SPACEBEE-165","PAYLOAD","U","23001CP","2023-04-06 02:44:16","254528","15.17351798","0.0013783","97.4847","156.9578","248.5944","111.3819","0","999","1416","0.0010068","0.00020114","0","3881771","0 SPACEBEE-165","1 55094U 23001CP  23096.11407702  .00020114  00000-0  10068-2 0  9996","2 55094  97.4847 156.9578 0013783 248.5944 111.3819 15.17351798 14166","2023-001CP","55094","6891.985","94.902","523.349","504.351","0"
"GENERATED VIA SPACETRACK.ORG API","18 SPCS","55094","SPACEBEE-165","PAYLOAD","U","23001CP","2023-04-06 21:43:48","709632","15.17380637","0.0013786","97.4844","157.7401","245.559","114.4205","0","999","1428","0.00091101","0.00018204","0","3882020","0 SPACEBEE-165","1 55094U 23001CP  23096.90542488  .00018204  00000-0  91101-3 0  9999","2 55094  97.4844 157.7401 0013786 245.5590 114.4205 15.17380637 14284","2023-001CP","55094","6891.898","94.900","523.264","504.261","0"
"GENERATED VIA SPACETRACK.ORG API","18 SPCS","55094","SPACEBEE-165","PAYLOAD","U","23001CP","2023-04-06 21:43:48","709632","15.17380637","0.0013786","97.4844","157.7401","245.559","114.4205","0","999","1428","0.00091101","0.00018204","0","3882049","0 SPACEBEE-165","1 55094U 23001CP  23096.90542488  .00018204  00000-0  91101-3 0  9999","2 55094  97.4844 157.7401 0013786 245.5590 114.4205 15.17380637 14284","2023-001CP","55094","6891.898","94.900","523.264","504.261","0"
"GENERATED VIA SPACETRACK.ORG API","18 SPCS","55094","SPACEBEE-165","PAYLOAD","U","23001CP","2023-04-07 02:28:41","613888","15.17388247","0.0013816","97.4846","157.9354","244.9138","115.0662","0","999","1431","0.00089985","0.00017984","0","3882626","0 SPACEBEE-165","1 55094U 23001CP  23097.10325942  .00017984  00000-0  89985-3 0  9997","2 55094  97.4846 157.9354 0013816 244.9138 115.0662 15.17388247 14313","2023-001CP","55094","6891.875","94.900","523.261","504.218","0"
"GENERATED VIA SPACETRACK.ORG API","18 SPCS","55094","SPACEBEE-165","PAYLOAD","U","23001CP","2023-04-08 03:48:02","319552","15.17428066","0.0013831","97.4844","158.9782","240.8728","119.1121","0","999","1447","0.00086992","0.00017402","0","3883188","0 SPACEBEE-165","1 55094U 23001CP  23098.15836018  .00017402  00000-0  86992-3 0  9994","2 55094  97.4844 158.9782 0013831 240.8728 119.1121 15.17428066 14470","2023-001CP","55094","6891.754","94.897","523.151","504.087","0"
"GENERATED VIA SPACETRACK.ORG API","18 SPCS","55094","SPACEBEE-165","PAYLOAD","U","23001CP","2023-04-08 03:48:02","319552","15.17428066","0.0013831","97.4844","158.9782","240.8728","119.1121","0","999","1447","0.00086992","0.00017402","0","3883527","0 SPACEBEE-165","1 55094U 23001CP  23098.15836018  .00017402  00000-0  86992-3 0  9994","2 55094  97.4844 158.9782 0013831 240.8728 119.1121 15.17428066 14470","2023-001CP","55094","6891.754","94.897","523.151","504.087","0"
"GENERATED VIA SPACETRACK.ORG API","18 SPCS","55094","SPACEBEE-165","PAYLOAD","U","23001CP","2023-04-09 09:52:12","761184","15.17471267","0.0013929","97.4836","160.2165","236.3118","123.6787","0","999","1466","0.00084687","0.0001696","0","3884308","0 SPACEBEE-165","1 55094U 23001CP  23099.41125881  .00016960  00000-0  84687-3 0  9990","2 55094  97.4836 160.2165 0013929 236.3118 123.6787 15.17471267 14663","2023-001CP","55094","6891.623","94.895","523.088","503.889","0"
"GENERATED VIA SPACETRACK.ORG API","18 SPCS","55094","SPACEBEE-165","PAYLOAD","U","23001CP","2023-04-09 09:52:12","761184","15.17471267","0.0013929","97.4836","160.2165","236.3118","123.6787","0","999","1466","0.00084687","0.0001696","0","3884332","0 SPACEBEE-165","1 55094U 23001CP  23099.41125881  .00016960  00000-0  84687-3 0  9990","2 55094  97.4836 160.2165 0013929 236.3118 123.6787 15.17471267 14663","2023-001CP","55094","6891.623","94.895","523.088","503.889","0"
"GENERATED VIA SPACETRACK.ORG API","18 SPCS","55094","SPACEBEE-165","PAYLOAD","U","23001CP","2023-04-09 17:46:59","234304","15.1748155","0.0013978","97.4834","160.5423","235.1131","124.8789","0","999","1471","0.00080637","0.00016149","0","3884641","0 SPACEBEE-165","1 55094U 23001CP  23099.74096336  .00016149  00000-0  80637-3 0  9998","2 55094  97.4834 160.5423 0013978 235.1131 124.8789 15.17481550 14714","2023-001CP","55094","6891.592","94.894","523.090","503.824","0"
"GENERATED VIA SPACETRACK.ORG API","18 SPCS","55094","SPACEBEE-165","PAYLOAD","U","23001CP","2023-04-10 03:16:42","719520","15.17496069","0.0014027","97.4833","160.9334","233.7663","126.2274","0","999","1477","0.00085703","0.00017177","0","3885195","0 SPACEBEE-165","1 55094U 23001CP  23100.13660555  .00017177  00000-0  85703-3 0  9995","2 55094  97.4833 160.9334 0014027 233.7663 126.2274 15.17496069 14770","2023-001CP","55094","6891.548","94.893","523.080","503.746","0"
"GENERATED VIA SPACETRACK.ORG API","18 SPCS","55094","SPACEBEE-165","PAYLOAD","U","23001CP","2023-04-11 03:00:59","886432","15.175364","0.0014144","97.483","161.9109","230.1875","129.8114","0","999","1492","0.00099813","0.00020048","0","3885783","0 SPACEBEE-165","1 55094U 23001CP  23101.12569313  .00020048  00000-0  99813-3 0  9993","2 55094  97.4830 161.9109 0014144 230.1875 129.8114 15.17536400 14927","2023-001CP","55094","6891.426","94.891","523.038","503.544","0"
"GENERATED VIA SPACETRACK.ORG API","18 SPCS","55094","SPACEBEE-165","PAYLOAD","U","23001CP","2023-04-12 02:45:14","830272","15.17574842","0.001421","97.4832","162.8885","226.6394","133.3656","0","999","1507","0.00094565","0.00019009","0","3886349","0 SPACEBEE-165","1 55094U 23001CP  23102.11475498  .00019009  00000-0  94565-3 0  9997","2 55094  97.4832 162.8885 0014210 226.6394 133.3656 15.17574842 15070","2023-001CP","55094","6891.310","94.888","522.967","503.382","0"
